0 BEIDOU 3M20
1 44865U 19090B   23256.20813128  .00000028  00000-0  00000-0 0  9999
2 44865  55.7133  96.3870 0013185 291.0609 252.7119  1.86232005 25440
0 COSMOS 2545 (GLONASS)
1 45358U 20018A   23256.25395972 -.00000081  00000-0  00000-0 0  9996
2 45358  64.8408 347.6141 0010255 238.0102 121.9303  2.13102710 27186
0 NAVSTAR 79 (USA 304)
1 45854U 20041A   23256.54133781 -.00000009  00000-0  00000-0 0  9993
2 45854  55.8911  68.3599 0036472 186.3511 129.3550  2.00563523 23820
0 COSMOS 2547 (GLONASS)
1 46805U 20075A   23256.44287832  .00000017  00000-0  00000-0 0  9991
2 46805  64.6156 226.1972 0008417 244.0528 115.8398  2.13102950 22436
0 NAVSTAR 80 (USA 309)
1 46826U 20078A   23256.32412594  .00000016  00000-0  00000-0 0  9998
2 46826  54.3087 251.6987 0036124 194.9186 299.4653  2.00562933 21299
0 NAVSTAR 81 (USA 319)
1 48859U 21054A   23256.34232856 -.00000102  00000-0  00000-0 0  9991
2 48859  55.3401  12.8664 0012472 212.1035 118.0239  2.00573423 16536
0 COSMOS 2557 (GLONASS)
1 52984U 22075A   23255.19772425 -.00000089  00000-0  00000+0 0  9995
2 52984  64.7580 349.8091 0012050 275.3319  84.5640  2.13102432  9196
0 COSMOS 2559 (GLONASS)
1 54031U 22130A   23256.54751789 -.00000081  00000-0  00000-0 0  9995
2 54031  64.7289 349.8895 0007284 218.2584 141.7275  2.13101663  7218
0 COSMOS 2564 (GLONASS)
1 54377U 22161A   23256.27132434  .00000017  00000-0  00000-0 0  9990
2 54377  64.7564 226.2576 0010716 226.1272 133.7643  2.13102202  6159
0 NAVSTAR 82 (USA 343)
1 55268U 23009A   23256.08302088 -.00000024  00000-0  00000-0 0  9994
2 55268  55.0881 188.0713 0004460  90.9394  92.8330  2.00555282  5022
0 COSMOS 2569 (GLONASS)
1 57517U 23114A   23256.29113351  .00000053  00000-0  00000-0 0  9997
2 57517  64.8040 106.7426 0008980 297.9782  62.0271  2.13104068   782